{
  "links" : {
    "next" : "https://api.nasa.gov/neo/rest/v1/neo/browse?page=44&size=20&api_key=jqAGvNAwUIBu4fl9FSOjdm3V4F7hIglRzI6pdX9d",
    "prev" : "https://api.nasa.gov/neo/rest/v1/neo/browse?page=42&size=20&api_key=jqAGvNAwUIBu4fl9FSOjdm3V4F7hIglRzI6pdX9d",
    "self" : "https://api.nasa.gov/neo/rest/v1/neo/browse?page=43&size=20&api_key=jqAGvNAwUIBu4fl9FSOjdm3V4F7hIglRzI6pdX9d"
  },
  "page" : {
    "size" : 20,
    "total_elements" : 20750,
    "total_pages" : 1038,
    "number" : 43
  },
  "near_earth_objects" : [ {
    "links" : {
      "self" : "https://api.nasa.gov/neo/rest/v1/neo/3840716?api_key=jqAGvNAwUIBu4fl9FSOjdm3V4F7hIglRzI6pdX9d"
    },
    "neo_reference_id" : "3840716",
    "name" : "(2019 FR1)",
    "designation" : "2019 FR1",
    "nasa_jpl_url" : "http://ssd.jpl.nasa.gov/sbdb.cgi?sstr=3840716",
    "absolute_magnitude_h" : 25.093,
    "estimated_diameter" : {
      "kilometers" : {
        "estimated_diameter_min" : 0.0254656624,
        "estimated_diameter_max" : 0.0569429521
      },
      "meters" : {
        "estimated_diameter_min" : 25.4656623588,
        "estimated_diameter_max" : 56.9429521264
      },
      "miles" : {
        "estimated_diameter_min" : 0.0158236241,
        "estimated_diameter_max" : 0.0353826991
      },
      "feet" : {
        "estimated_diameter_min" : 83.5487636934,
        "estimated_diameter_max" : 186.8207150544
      }
    },
    "is_potentially_hazardous_asteroid" : false,
    "close_approach_data" : [ {
      "close_approach_date" : "2019-04-02",
      "epoch_date_close_approach" : 1554188400000,
      "relative_velocity" : {
        "kilometers_per_second" : "20.5259024951",
        "kilometers_per_hour" : "73893.248982508",
        "miles_per_hour" : "45914.3912913811"
      },
      "miss_distance" : {
        "astronomical" : "0.1005035584",
        "lunar" : "39.0958824158",
        "kilometers" : "15035118",
        "miles" : "9342389"
      },
      "orbiting_body" : "Earth"
    }, {
      "close_approach_date" : "2019-09-25",
      "epoch_date_close_approach" : 1569394800000,
      "relative_velocity" : {
        "kilometers_per_second" : "17.9571090859",
        "kilometers_per_hour" : "64645.5927091374",
        "miles_per_hour" : "40168.257314186"
      },
      "miss_distance" : {
        "astronomical" : "0.411031608",
        "lunar" : "159.8912963867",
        "kilometers" : "61489452",
        "miles" : "38207776"
      },
      "orbiting_body" : "Earth"
    }, {
      "close_approach_date" : "2022-04-03",
      "epoch_date_close_approach" : 1648969200000,
      "relative_velocity" : {
        "kilometers_per_second" : "19.5773489125",
        "kilometers_per_hour" : "70478.4560849867",
        "miles_per_hour" : "43792.571782363"
      },
      "miss_distance" : {
        "astronomical" : "0.1487175392",
        "lunar" : "57.8511238098",
        "kilometers" : "22247828",
        "miles" : "13824159"
      },
      "orbiting_body" : "Earth"
    } ],
    "orbital_data" : {
      "orbit_id" : "1",
      "orbit_determination_date" : "2019-03-31 16:12:08",
      "first_observation_date" : "2019-03-29",
      "last_observation_date" : "2019-03-31",
      "data_arc_in_days" : 2,
      "observations_used" : 58,
      "orbit_uncertainty" : "9",
      "minimum_orbit_intersection" : ".0986305",
      "jupiter_tisserand_invariant" : "4.721",
      "epoch_osculation" : "2458572.5",
      "eccentricity" : ".3153954549747241",
      "semi_major_axis" : "1.314897673907753",
      "inclination" : "36.84971682395089",
      "ascending_node_longitude" : "187.8684714696072",
      "orbital_period" : "550.7269920638493",
      "perihelion_distance" : ".900184923800411",
      "perihelion_argument" : "77.67512238259198",
      "aphelion_distance" : "1.729610424015096",
      "perihelion_time" : "2458639.804591942449",
      "mean_anomaly" : "316.0042390359677",
      "mean_motion" : ".653681415996881",
      "equinox" : "J2000",
      "orbit_class" : {
        "orbit_class_type" : "APO",
        "orbit_class_range" : "a (semi-major axis) > 1.0 AU; q (perihelion) < 1.017 AU",
        "orbit_class_description" : "Near-Earth asteroid orbits which cross the Earth’s orbit similar to that of 1862 Apollo"
      }
    },
    "is_sentry_object" : false
  }, {
    "links" : {
      "self" : "https://api.nasa.gov/neo/rest/v1/neo/3840836?api_key=jqAGvNAwUIBu4fl9FSOjdm3V4F7hIglRzI6pdX9d"
    },
    "neo_reference_id" : "3840836",
    "name" : "(2019 GD3)",
    "designation" : "2019 GD3",
    "nasa_jpl_url" : "http://ssd.jpl.nasa.gov/sbdb.cgi?sstr=3840836",
    "absolute_magnitude_h" : 20.858,
    "estimated_diameter" : {
      "kilometers" : {
        "estimated_diameter_min" : 0.1790420231,
        "estimated_diameter_max" : 0.4003501345
      },
      "meters" : {
        "estimated_diameter_min" : 179.0420231201,
        "estimated_diameter_max" : 400.3501345255
      },
      "miles" : {
        "estimated_diameter_min" : 0.1112515209,
        "estimated_diameter_max" : 0.2487659634
      },
      "feet" : {
        "estimated_diameter_min" : 587.4082311332,
        "estimated_diameter_max" : 1313.4847353568
      }
    },
    "is_potentially_hazardous_asteroid" : false,
    "close_approach_data" : [ {
      "close_approach_date" : "2016-02-04",
      "epoch_date_close_approach" : 1454572800000,
      "relative_velocity" : {
        "kilometers_per_second" : "11.0993441008",
        "kilometers_per_hour" : "39957.6387627652",
        "miles_per_hour" : "24828.1228190082"
      },
      "miss_distance" : {
        "astronomical" : "0.058595825",
        "lunar" : "22.7937755585",
        "kilometers" : "8765811",
        "miles" : "5446822.5"
      },
      "orbiting_body" : "Mars"
    }, {
      "close_approach_date" : "2019-07-18",
      "epoch_date_close_approach" : 1563433200000,
      "relative_velocity" : {
        "kilometers_per_second" : "6.2021671099",
        "kilometers_per_hour" : "22327.8015955723",
        "miles_per_hour" : "13873.6276080932"
      },
      "miss_distance" : {
        "astronomical" : "0.1194394775",
        "lunar" : "46.4619560242",
        "kilometers" : "17867892",
        "miles" : "11102593"
      },
      "orbiting_body" : "Earth"
    } ],
    "orbital_data" : {
      "orbit_id" : "5",
      "orbit_determination_date" : "2019-04-16 07:28:48",
      "first_observation_date" : "2019-04-03",
      "last_observation_date" : "2019-04-16",
      "data_arc_in_days" : 13,
      "observations_used" : 45,
      "orbit_uncertainty" : "7",
      "minimum_orbit_intersection" : ".119133",
      "jupiter_tisserand_invariant" : "3.561",
      "epoch_osculation" : "2458600.5",
      "eccentricity" : ".4869925429840503",
      "semi_major_axis" : "2.122978287514112",
      "inclination" : "6.0622626393269",
      "ascending_node_longitude" : "167.277579496529",
      "orbital_period" : "1129.839504434127",
      "perihelion_distance" : "1.08910369257769",
      "perihelion_argument" : "115.8358006001096",
      "aphelion_distance" : "3.156852882450533",
      "perihelion_time" : "2458671.716004543879",
      "mean_anomaly" : "337.3084924582832",
      "mean_motion" : ".3186293261893899",
      "equinox" : "J2000",
      "orbit_class" : {
        "orbit_class_type" : "AMO",
        "orbit_class_range" : "1.017 AU < q (perihelion) < 1.3 AU",
        "orbit_class_description" : "Near-Earth asteroid orbits similar to that of 1221 Amor"
      }
    },
    "is_sentry_object" : false
  } ]
}